OBJECT_NAME,OBJECT_ID,EPOCH,MEAN_MOTION,ECCENTRICITY,INCLINATION,RA_OF_ASC_NODE,ARG_OF_PERICENTER,MEAN_ANOMALY,EPHEMERIS_TYPE,CLASSIFICATION_TYPE,NORAD_CAT_ID,ELEMENT_SET_NO,REV_AT_EPOCH,BSTAR,MEAN_MOTION_DOT,MEAN_MOTION_DDOT
LEMUR-1,2014-033AL,2026-07-14T23:34:10.320096,14.85336489,.0047801,97.7909,345.1759,348.6547,11.3586,0,U,40044,999,64959,.95604E-4,.783E-5,0
LEMUR-2-GREENBERG,2017-042N,2026-07-15T01:07:33.602016,15.32149662,.0007195,97.3827,16.5610,260.7721,99.2707,0,U,42837,999,49265,.32403E-3,.999E-4,0
LEMUR-2-ANDIS,2017-042P,2026-07-15T00:14:31.947072,15.35919403,.0007198,97.3676,16.8088,258.4412,101.6024,0,U,42838,999,49272,.35686E-3,.12411E-3,0
LEMUR-2-MONSON,2017-042Q,2026-07-14T23:39:32.460768,15.28749052,.0005287,97.4087,16.4294,246.4562,113.6122,0,U,42839,999,49241,.28429E-3,.7873E-4,0
LEMUR-2-FURIAUS,2017-042R,2026-07-15T01:26:02.139936,15.31128008,.0006026,97.3772,14.4663,330.2641,29.8256,0,U,42840,999,49247,.33189E-3,.9911E-4,0
LEMUR-2-PETERG,2017-042S,2026-07-15T00:15:38.201184,15.35024382,.0003278,97.3988,21.1098,220.8339,139.2659,0,U,42841,999,49270,.33401E-3,.11275E-3,0
LEMUR-2-DEMBITZ,2017-042T,2026-07-15T00:20:21.073056,15.31106592,.0005062,97.3823,17.4650,275.8916,84.1748,0,U,42842,999,49260,.30371E-3,.9054E-4,0
LEMUR-2-ZACHARY,2017-042W,2026-07-15T04:20:48.893280,15.52713433,.0002514,97.3567,28.4612,245.5131,114.5860,0,U,42845,999,49354,.48083E-3,.29645E-3,0
LEMUR-2-AMANDA-SVANTE,2021-034B,2026-07-15T04:33:52.594848,15.35959572,.0004594,97.5753,275.2472,143.0554,217.1007,0,U,48269,999,28535,.56242E-3,.19638E-3,0
LEMUR-2-SPECIAL-K,2021-034F,2026-07-15T04:57:14.928192,15.74724524,.0006361,97.5637,285.3000,214.5066,145.5786,0,U,48273,999,28608,.12117E-2,.180994E-2,0
LEMUR-2-EMBRIONOVIS,2023-084AQ,2026-07-14T22:04:28.394112,15.38225270,.0008298,97.6312,341.2012,206.9114,153.1701,0,U,56970,999,17194,.21306E-3,.7943E-4,0
LEMUR-2-DEVERILL-M-T,2023-100F,2026-07-15T02:25:25.110048,15.41090109,.000468,99.4454,242.9511,297.4251,62.6512,0,U,57391,999,16554,.37445E-3,.15384E-3,0
LEMUR-2-BASS,2023-174D,2026-07-15T03:37:22.047168,15.43993692,.0007671,97.3850,281.2709,78.4477,281.7632,0,U,58259,999,14967,.22325E-3,.10095E-3,0
LEMUR-2-JK0903EM1407,2023-174CJ,2026-07-15T04:24:02.907072,15.53068651,.0003617,97.3926,287.4707,33.6015,326.5466,0,U,58336,999,15007,.27342E-3,.17007E-3,0
LEMUR-2-MJR092620,2023-174CN,2026-07-15T04:42:07.748064,15.45863269,.0005292,97.3980,286.7599,30.7058,329.4500,0,U,58340,999,14997,.23445E-3,.11299E-3,0
LEMUR-2-NIMBUS2000,2024-022A,2026-07-15T03:19:39.638208,15.41114955,.000876,97.4076,46.5090,29.0828,331.0905,0,U,58899,999,13657,.31994E-3,.1318E-3,0
LEMUR-2-VALHALLA,2024-022B,2026-07-15T03:26:37.410720,15.40486977,.0009214,97.4076,46.4839,24.3908,335.7773,0,U,58900,999,13657,.22826E-3,.9181E-4,0
LEMUR-2-CAEL,2024-022E,2026-07-15T03:05:57.581952,15.41854430,.0007125,97.4057,47.4555,9.8241,350.3144,0,U,58903,999,13664,.24954E-3,.10508E-3,0
LEMUR-2-JOHNNYTRUONG,2024-043BA,2026-07-14T23:04:54.033600,15.62548407,.0004101,97.5391,349.4319,94.5290,265.6437,0,U,59146,999,13237,.3145E-3,.27955E-3,0
LEMUR-2-TOMATOKECHUP,2024-149D,2026-07-15T04:18:39.280320,15.36582532,.0003289,97.3800,278.3072,122.7219,237.4342,0,U,60471,999,10646,.17522E-3,.6176E-4,0
LEMUR-2-STELLA,2024-149BT,2026-07-15T03:21:27.640800,15.12370018,.0001262,97.6739,278.7272,117.9259,242.2099,0,U,60533,999,10472,.30849E-3,.5285E-4,0
LEMUR-2-MARHISYAM,2024-149BW,2026-07-15T01:33:01.804608,15.11775917,.0002498,97.6883,279.1278,69.0130,291.1366,0,U,60536,999,10469,.33056E-3,.5575E-4,0
LEMUR-2-AHMED-ASRAR,2024-149DN,2026-07-14T19:21:43.600032,15.13301229,.00011348,97.7008,281.0702,205.8662,154.2512,0,U,60576,999,10474,.33683509E-3,.593E-4,0
LEMUR-2-LLOYD,2024-149DP,2026-07-15T03:34:01.392672,15.09750750,.0004803,97.6750,277.3011,72.7044,287.4710,0,U,60577,999,10461,.3148E-3,.5016E-4,0
LEMUR-2-SQUIRRELCOMM,2024-149DQ,2026-07-15T03:17:31.094880,15.07446412,.000408,97.6712,276.9648,328.3749,31.7233,0,U,60578,999,10461,.16013E-3,.2363E-4,0
LEMUR-2-SIERRINI,2024-149DR,2026-07-15T03:49:55.666848,15.11512778,.0006477,97.6849,278.8848,91.0767,269.1205,0,U,60579,999,10468,.35465E-3,.5945E-4,0
LEMUR-2-WILSON,2025-009CP,2026-07-15T03:14:17.528640,14.95276365,.0002024,97.7021,274.1097,325.2513,34.8575,0,U,62694,999,8153,.66337E-4,.674E-5,0
LEMUR-2-STAR-FOX,2025-009CR,2026-07-15T04:38:33.025056,15.02840720,.0002231,97.6910,277.6011,42.2446,317.8950,0,U,62696,999,8176,.2575E-3,.3389E-4,0
LEMUR-2-ARIANNA,2025-009CU,2026-07-15T04:36:20.551392,15.02842721,.000256,97.6852,277.3518,48.8550,311.2895,0,U,62699,999,8176,.2768E-3,.3648E-4,0
LEMUR-2-ALISIA,2025-009DB,2026-07-15T03:56:33.156096,15.03175424,.0004296,97.6973,278.1493,129.2590,230.9017,0,U,62706,999,10436,.33038E-3,.4406E-4,0
